start=new Date('2022-06-22T00:00:00.000Z').valueOf();
sats=[{"LAUNCH_DATE":"2021-12-02","FILE":"3498878","ECCENTRICITY":"0.00033500","OBJECT_ID":"2021-115B","TLE_LINE1":"1 49725U 21115B   22172.27348548 -.00000390  00000-0 -63792-5 0  9998","CLASSIFICATION_TYPE":"U","EPOCH":"2022-06-21T06:33:49.145472","MEAN_ANOMALY":"307.4647","OBJECT_TYPE":"PAYLOAD","RCS_SIZE":"LARGE","INCLINATION":"53.2183","RA_OF_ASC_NODE":"122.8003","NORAD_CAT_ID":"49725","SEMIMAJOR_AXIS":"6917.876","PERIOD":"95.437","ELEMENT_SET_NO":"999","TLE_LINE2":"2 49725  53.2183 122.8003 0003350  52.6650 307.4647 15.08841328 30613","MEAN_MOTION":"15.08841328","OBJECT_NAME":"STARLINK-3218","BSTAR":"-0.00000637920000","PERIAPSIS":"537.424","DECAY_DATE":null,"APOAPSIS":"542.059","TIME_SYSTEM":"UTC","CENTER_NAME":"EARTH","GP_ID":"206549852","REV_AT_EPOCH":"3061","MEAN_MOTION_DOT":"-0.00000390","MEAN_MOTION_DDOT":"0.0000000000000","REF_FRAME":"TEME","MEAN_ELEMENT_THEORY":"SGP4","EPHEMERIS_TYPE":"0","SITE":"AFETR","COUNTRY_CODE":"US","ARG_OF_PERICENTER":"52.6650"},{"OBJECT_NAME":"STARLINK-3237","BSTAR":"-0.00005589500000","APOAPSIS":"541.796","DECAY_DATE":null,"PERIAPSIS":"537.727","TIME_SYSTEM":"UTC","CENTER_NAME":"EARTH","GP_ID":"206582607","MEAN_MOTION_DOT":"-0.00001178","REV_AT_EPOCH":"3055","MEAN_MOTION_DDOT":"0.0000000000000","REF_FRAME":"TEME","MEAN_ELEMENT_THEORY":"SGP4","EPHEMERIS_TYPE":"0","SITE":"AFETR","COUNTRY_CODE":"US","ARG_OF_PERICENTER":"54.0370","LAUNCH_DATE":"2021-12-02","FILE":"3499203","OBJECT_ID":"2021-115C","ECCENTRICITY":"0.00029410","TLE_LINE1":"1 49726U 21115C   22172.83097718 -.00001178  00000-0 -55895-4 0  9990","CLASSIFICATION_TYPE":"U","EPOCH":"2022-06-21T19:56:36.428352","MEAN_ANOMALY":"306.0894","RCS_SIZE":"LARGE","OBJECT_TYPE":"PAYLOAD","INCLINATION":"53.2183","RA_OF_ASC_NODE":"130.3055","NORAD_CAT_ID":"49726","SEMIMAJOR_AXIS":"6917.896","PERIOD":"95.438","ELEMENT_SET_NO":"999","TLE_LINE2":"2 49726  53.2183 130.3055 0002941  54.0370 306.0894 15.08834737 30553","MEAN_MOTION":"15.08834737"},{"TLE_LINE1":"1 49727U 21115D   22172.90089316 -.00000731  00000-0 -27814-4 0  9998","CLASSIFICATION_TYPE":"U","FILE":"3499203","LAUNCH_DATE":"2021-12-02","OBJECT_ID":"2021-115D","ECCENTRICITY":"0.00032250","ELEMENT_SET_NO":"999","PERIOD":"95.438","TLE_LINE2":"2 49727  53.2181 129.9930 0003225  56.0775 304.0523 15.08829569 30560","MEAN_MOTION":"15.08829569","MEAN_ANOMALY":"304.0523","EPOCH":"2022-06-21T21:37:17.169024","NORAD_CAT_ID":"49727","SEMIMAJOR_AXIS":"6917.912","INCLINATION":"53.2181","RA_OF_ASC_NODE":"129.9930","RCS_SIZE":"LARGE","OBJECT_TYPE":"PAYLOAD","DECAY_DATE":null,"APOAPSIS":"542.008","PERIAPSIS":"537.546","BSTAR":"-0.00002781400000","OBJECT_NAME":"STARLINK-3242","TIME_SYSTEM":"UTC","EPHEMERIS_TYPE":"0","MEAN_ELEMENT_THEORY":"SGP4","ARG_OF_PERICENTER":"56.0775","COUNTRY_CODE":"US","SITE":"AFETR","GP_ID":"206583851","CENTER_NAME":"EARTH","REF_FRAME":"TEME","MEAN_MOTION_DDOT":"0.0000000000000","REV_AT_EPOCH":"3056","MEAN_MOTION_DOT":"-0.00000731"},{"MEAN_ANOMALY":"307.6554","EPOCH":"2022-06-21T21:42:34.332192","NORAD_CAT_ID":"49728","SEMIMAJOR_AXIS":"6917.862","INCLINATION":"53.2171","RA_OF_ASC_NODE":"129.9708","RCS_SIZE":"LARGE","OBJECT_TYPE":"PAYLOAD","ELEMENT_SET_NO":"999","PERIOD":"95.437","TLE_LINE2":"2 49728  53.2171 129.9708 0002226  52.4640 307.6554 15.08846062 30564","MEAN_MOTION":"15.08846062","FILE":"3499203","LAUNCH_DATE":"2021-12-02","ECCENTRICITY":"0.00022260","OBJECT_ID":"2021-115E","TLE_LINE1":"1 49728U 21115E   22172.90456403 -.00003530  00000-0 -20372-3 0  9995","CLASSIFICATION_TYPE":"U","GP_ID":"206583600","CENTER_NAME":"EARTH","REF_FRAME":"TEME","MEAN_MOTION_DDOT":"0.0000000000000","MEAN_MOTION_DOT":"-0.00003530","REV_AT_EPOCH":"3056","EPHEMERIS_TYPE":"0","MEAN_ELEMENT_THEORY":"SGP4","ARG_OF_PERICENTER":"52.4640","COUNTRY_CODE":"US","SITE":"AFETR","DECAY_DATE":null,"APOAPSIS":"541.267","PERIAPSIS":"538.187","BSTAR":"-0.00020372000000","OBJECT_NAME":"STARLINK-3240","TIME_SYSTEM":"UTC"},{"CLASSIFICATION_TYPE":"U","TLE_LINE1":"1 49729U 21115F   22172.90825847 -.00000274  00000-0  96427-6 0  9996","ECCENTRICITY":"0.00035360","OBJECT_ID":"2021-115F","LAUNCH_DATE":"2021-12-02","FILE":"3499203","MEAN_MOTION":"15.08824260","TLE_LINE2":"2 49729  53.2160 129.9582 0003536  49.3844 310.7455 15.08824260 30560","PERIOD":"95.439","ELEMENT_SET_NO":"999","INCLINATION":"53.2160","RA_OF_ASC_NODE":"129.9582","RCS_SIZE":"LARGE","OBJECT_TYPE":"PAYLOAD","SEMIMAJOR_AXIS":"6917.929","NORAD_CAT_ID":"49729","MEAN_ANOMALY":"310.7455","EPOCH":"2022-06-21T21:47:53.531808","TIME_SYSTEM":"UTC","BSTAR":"0.00000096427000","OBJECT_NAME":"STARLINK-3251","PERIAPSIS":"537.347","DECAY_DATE":null,"APOAPSIS":"542.240","SITE":"AFETR","ARG_OF_PERICENTER":"49.3844","COUNTRY_CODE":"US","EPHEMERIS_TYPE":"0","MEAN_ELEMENT_THEORY":"SGP4","MEAN_MOTION_DDOT":"0.0000000000000","REV_AT_EPOCH":"3056","MEAN_MOTION_DOT":"-0.00000274","REF_FRAME":"TEME","CENTER_NAME":"EARTH","GP_ID":"206582355"},{"RCS_SIZE":"LARGE","OBJECT_TYPE":"PAYLOAD","RA_OF_ASC_NODE":"129.9145","INCLINATION":"53.2158","NORAD_CAT_ID":"49730","SEMIMAJOR_AXIS":"6917.869","EPOCH":"2022-06-21T21:58:27.998112","MEAN_ANOMALY":"305.9310","MEAN_MOTION":"15.08843757","TLE_LINE2":"2 49730  53.2158 129.9145 0003128  54.1973 305.9310 15.08843757 30566","PERIOD":"95.437","ELEMENT_SET_NO":"999","ECCENTRICITY":"0.00031280","OBJECT_ID":"2021-115G","LAUNCH_DATE":"2021-12-02","FILE":"3499203","CLASSIFICATION_TYPE":"U","TLE_LINE1":"1 49730U 21115G   22172.91560183  .00000882  00000-0  73540-4 0  9991","REV_AT_EPOCH":"3056","MEAN_MOTION_DOT":"0.00000882","MEAN_MOTION_DDOT":"0.0000000000000","REF_FRAME":"TEME","CENTER_NAME":"EARTH","GP_ID":"206583107","SITE":"AFETR","COUNTRY_CODE":"US","ARG_OF_PERICENTER":"54.1973","MEAN_ELEMENT_THEORY":"SGP4","EPHEMERIS_TYPE":"0","TIME_SYSTEM":"UTC","OBJECT_NAME":"STARLINK-3249","BSTAR":"0.00007354000000","APOAPSIS":"541.898","DECAY_DATE":null,"PERIAPSIS":"537.570"},{"OBJECT_ID":"2021-115H","ECCENTRICITY":"0.00032720","LAUNCH_DATE":"2021-12-02","FILE":"3499203","CLASSIFICATION_TYPE":"U","TLE_LINE1":"1 49731U 21115H   22172.91193457  .00002484  00000-0  17417-3 0  9998","RCS_SIZE":"LARGE","OBJECT_TYPE":"PAYLOAD","RA_OF_ASC_NODE":"129.9384","INCLINATION":"53.2149","NORAD_CAT_ID":"49731","SEMIMAJOR_AXIS":"6917.913","EPOCH":"2022-06-21T21:53:11.146848","MEAN_ANOMALY":"312.0913","TLE_LINE2":"2 49731  53.2149 129.9384 0003272  48.0358 312.0913 15.08829485 30561","MEAN_MOTION":"15.08829485","PERIOD":"95.438","ELEMENT_SET_NO":"999","TIME_SYSTEM":"UTC","OBJECT_NAME":"STARLINK-3228","BSTAR":"0.00017417000000","PERIAPSIS":"537.514","DECAY_DATE":null,"APOAPSIS":"542.041","REV_AT_EPOCH":"3056","MEAN_MOTION_DOT":"0.00002484","MEAN_MOTION_DDOT":"0.0000000000000","REF_FRAME":"TEME","CENTER_NAME":"EARTH","GP_ID":"206583352","SITE":"AFETR","COUNTRY_CODE":"US","ARG_OF_PERICENTER":"48.0358","MEAN_ELEMENT_THEORY":"SGP4","EPHEMERIS_TYPE":"0"},{"OBJECT_NAME":"STARLINK-3246","BSTAR":"0.00005165900000","APOAPSIS":"541.824","DECAY_DATE":null,"PERIAPSIS":"537.679","TIME_SYSTEM":"UTC","CENTER_NAME":"EARTH","GP_ID":"206584100","MEAN_MOTION_DOT":"0.00000534","REV_AT_EPOCH":"3056","MEAN_MOTION_DDOT":"0.0000000000000","REF_FRAME":"TEME","MEAN_ELEMENT_THEORY":"SGP4","EPHEMERIS_TYPE":"0","SITE":"AFETR","COUNTRY_CODE":"US","ARG_OF_PERICENTER":"54.0935","LAUNCH_DATE":"2021-12-02","FILE":"3499203","ECCENTRICITY":"0.00029960","OBJECT_ID":"2021-115J","TLE_LINE1":"1 49732U 21115J   22172.92664703  .00000534  00000-0  51659-4 0  9998","CLASSIFICATION_TYPE":"U","EPOCH":"2022-06-21T22:14:22.303392","MEAN_ANOMALY":"306.0335","OBJECT_TYPE":"PAYLOAD","RCS_SIZE":"LARGE","INCLINATION":"53.2174","RA_OF_ASC_NODE":"129.8606","SEMIMAJOR_AXIS":"6917.887","NORAD_CAT_ID":"49732","PERIOD":"95.438","ELEMENT_SET_NO":"999","TLE_LINE2":"2 49732  53.2174 129.8606 0002996  54.0935 306.0335 15.08837971 30566","MEAN_MOTION":"15.08837971"},{"OBJECT_NAME":"STARLINK-3252","BSTAR":"0.00002673200000","DECAY_DATE":null,"APOAPSIS":"541.992","PERIAPSIS":"537.501","TIME_SYSTEM":"UTC","CENTER_NAME":"EARTH","GP_ID":"206582855","MEAN_MOTION_DOT":"0.00000137","REV_AT_EPOCH":"3051","MEAN_MOTION_DDOT":"0.0000000000000","REF_FRAME":"TEME","MEAN_ELEMENT_THEORY":"SGP4","EPHEMERIS_TYPE":"0","SITE":"AFETR","COUNTRY_CODE":"US","ARG_OF_PERICENTER":"52.9291","LAUNCH_DATE":"2021-12-02","FILE":"3499203","OBJECT_ID":"2021-115K","ECCENTRICITY":"0.00032460","TLE_LINE1":"1 49733U 21115K   22172.58808935  .00000137  00000-0  26732-4 0  9991","CLASSIFICATION_TYPE":"U","EPOCH":"2022-06-21T14:06:50.919840","MEAN_ANOMALY":"307.1997","RCS_SIZE":"LARGE","OBJECT_TYPE":"PAYLOAD","INCLINATION":"53.2157","RA_OF_ASC_NODE":"131.3838","SEMIMAJOR_AXIS":"6917.881","NORAD_CAT_ID":"49733","PERIOD":"95.438","ELEMENT_SET_NO":"999","MEAN_MOTION":"15.08839710","TLE_LINE2":"2 49733  53.2157 131.3838 0003246  52.9291 307.1997 15.08839710 30518"},{"TLE_LINE1":"1 49734U 21115L   22172.80612261  .00001162  00000-0  91132-4 0  9997","CLASSIFICATION_TYPE":"U","FILE":"3499203","LAUNCH_DATE":"2021-12-02","OBJECT_ID":"2021-115L","ECCENTRICITY":"0.00030560","ELEMENT_SET_NO":"999","PERIOD":"95.438","TLE_LINE2":"2 49734  53.2184 120.4108 0003056  54.6992 305.4286 15.08840063 30698","MEAN_MOTION":"15.08840063","EPOCH":"2022-06-21T19:20:48.993504","MEAN_ANOMALY":"305.4286","SEMIMAJOR_AXIS":"6917.880","NORAD_CAT_ID":"49734","OBJECT_TYPE":"PAYLOAD","RCS_SIZE":"LARGE","RA_OF_ASC_NODE":"120.4108","INCLINATION":"53.2184","PERIAPSIS":"537.631","DECAY_DATE":null,"APOAPSIS":"541.859","OBJECT_NAME":"STARLINK-3238","BSTAR":"0.00009113200000","TIME_SYSTEM":"UTC","MEAN_ELEMENT_THEORY":"SGP4","EPHEMERIS_TYPE":"0","COUNTRY_CODE":"US","ARG_OF_PERICENTER":"54.6992","SITE":"AFETR","GP_ID":"206582608","CENTER_NAME":"EARTH","REF_FRAME":"TEME","REV_AT_EPOCH":"3069","MEAN_MOTION_DOT":"0.00001162","MEAN_MOTION_DDOT":"0.0000000000000"}];
